NORAD_CAT_ID,OBJECT_NAME,OBJECT_TYPE,EPOCH,MEAN_MOTION,ECCENTRICITY,INCLINATION,RA_OF_ASC_NODE,ARG_OF_PERICENTER,MEAN_ANOMALY,BSTAR,MEAN_MOTION_DOT,MEAN_MOTION_DDOT,TLE_LINE0,TLE_LINE1,TLE_LINE2,SEMIMAJOR_AXIS,PERIOD,APOGEE,PERIGEE,DECAYED
49155.0,STARLINK-3060,PAYLOAD,2022-08-15 09:52:59,14.97218117,0.000356,69.9985,297.5577,261.0108,99.0647,0.00045689,5.209e-05,0.0,0 STARLINK-3060,1 49155U 21082AB  22227.41179421  .00005209  00000-0  45689-3 0  9992,2 49155  69.9985 297.5577 0003560 261.0108  99.0647 14.97218117 52986,6953.6330000000025,96.178,577.974,573.023,0.0
49155.0,STARLINK-3060,PAYLOAD,2022-08-15 14:41:36,14.97220376,0.0003559,69.9984,297.0531,261.0325,99.043,0.00045457,5.183e-05,0.0,0 STARLINK-3060,1 49155U 21082AB  22227.61222257  .00005183  00000-0  45457-3 0  9994,2 49155  69.9984 297.0531 0003559 261.0325  99.0430 14.97220376 53014,6953.626,96.178,577.966,573.0169999999998,0.0
49155.0,STARLINK-3060,PAYLOAD,2022-08-16 03:31:14,14.97226552,0.0003567,69.9983,295.7077,261.1305,98.945,0.00047087,5.373e-05,0.0,0 STARLINK-3060,1 49155U 21082AB  22228.14669670  .00005373  00000-0  47087-3 0  9999,2 49155  69.9983 295.7077 0003567 261.1305  98.9450 14.97226552 53091,6953.607,96.178,577.953,572.992,0.0
49155.0,STARLINK-3060,PAYLOAD,2022-08-16 11:32:16,14.97228625,0.0003561,69.9984,294.8668,261.173,98.9026,0.0004301,4.9e-05,0.0,0 STARLINK-3060,1 49155U 21082AB  22228.48074288  .00004900  00000-0  43010-3 0  9998,2 49155  69.9984 294.8668 0003561 261.1730  98.9026 14.97228625 53142,6953.601,96.178,577.942,572.99,0.0
49155.0,STARLINK-3060,PAYLOAD,2022-08-16 14:44:40,14.97230679,0.000356,69.9984,294.5304,261.1631,98.9124,0.00045089,5.141e-05,0.0,0 STARLINK-3060,1 49155U 21082AB  22228.61436073  .00005141  00000-0  45089-3 0  9993,2 49155  69.9984 294.5304 0003560 261.1631  98.9124 14.97230679 53168,6953.595,96.178,577.935,572.984,0.0
49155.0,STARLINK-3060,PAYLOAD,2022-08-17 05:10:31,14.97236854,0.0003553999999999,69.9984,293.0168,261.5076,98.568,0.00045773,5.222e-05,0.0,0 STARLINK-3060,1 49155U 21082AB  22229.21564066  .00005222  00000-0  45773-3 0  9994,2 49155  69.9984 293.0168 0003554 261.5076  98.5680 14.97236854 53254,6953.575,96.177,577.9119999999998,572.969,0.0
49155.0,STARLINK-3060,PAYLOAD,2022-08-17 11:35:20,14.97240134,0.0003571,69.9984,292.3441,261.9888,98.0865,0.00050618,5.785e-05,0.0,0 STARLINK-3060,1 49155U 21082AB  22229.48287576  .00005785  00000-0  50618-3 0  9999,2 49155  69.9984 292.3441 0003571 261.9888  98.0865 14.97240134 53294,6953.565,96.177,577.913,572.947,0.0
49155.0,STARLINK-3060,PAYLOAD,2022-08-18 05:13:35,14.97252397,0.0003542,69.9985,290.4942,261.91900000000004,98.1567,0.00068992,7.924e-05,0.0,0 STARLINK-3060,1 49155U 21082AB  22230.21776716  .00007924  00000-0  68992-3 0  9992,2 49155  69.9985 290.4942 0003542 261.9190  98.1567 14.97252397 53401,6953.526999999999,96.176,577.855,572.929,0.0
49155.0,STARLINK-3060,PAYLOAD,2022-08-18 13:14:36,14.97251658,0.000359,69.9984,289.6531,260.8251,99.2501,0.00052074,5.956e-05,0.0,0 STARLINK-3060,1 49155U 21082AB  22230.55180842  .00005956  00000-0  52074-3 0  9995,2 49155  69.9984 289.6531 0003590 260.8251  99.2501 14.97251658 53457,6953.53,96.176,577.891,572.898,0.0
49155.0,STARLINK-3060,PAYLOAD,2022-08-19 11:41:26,14.97263196,0.0003621999999999,69.9984,287.2982,260.0359,100.0391,0.0004999,5.716e-05,0.0,0 STARLINK-3060,1 49155U 21082AB  22231.48711609  .00005716  00000-0  49990-3 0  9996,2 49155  69.9984 287.2982 0003622 260.0359 100.0391 14.97263196 53591,6953.494000000002,96.175,577.877,572.84,0.0
49155.0,STARLINK-3060,PAYLOAD,2022-08-20 10:08:16,14.97273489,0.0003634,69.9985,284.9434,259.8914,100.1835,0.00045354,5.178e-05,0.0,0 STARLINK-3060,1 49155U 21082AB  22232.42241761  .00005178  00000-0  45354-3 0  9990,2 49155  69.9985 284.9434 0003634 259.8914 100.1835 14.97273489 53730,6953.462,96.175,577.854,572.8,0.0
49155.0,STARLINK-3060,PAYLOAD,2022-08-20 13:20:41,14.9727311,0.0003652,69.9984,284.607,260.0912,99.9835,0.00037775,4.297e-05,0.0,0 STARLINK-3060,1 49155U 21082AB  22232.55603195  .00004297  00000-0  37775-3 0  9996,2 49155  69.9984 284.6070 0003652 260.0912  99.9835 14.97273110 53752,6953.4630000000025,96.175,577.868,572.789,0.0
49155.0,STARLINK-3060,PAYLOAD,2022-08-21 10:11:18,14.97279034,0.0003666,69.9983,282.4206,260.1489,99.9256,0.00031248,3.539e-05,0.0,0 STARLINK-3060,1 49155U 21082AB  22233.42452198  .00003539  00000-0  31248-3 0  9995,2 49155  69.9983 282.4206 0003666 260.1489  99.9256 14.97279034 53885,6953.445,96.174,577.859,572.761,0.0
49155.0,STARLINK-3060,PAYLOAD,2022-08-21 13:23:42,14.97279949,0.0003657,69.9983,282.0842,260.1623,99.9123,0.00030397,3.44e-05,0.0,0 STARLINK-3060,1 49155U 21082AB  22233.55813544  .00003440  00000-0  30397-3 0  9990,2 49155  69.9983 282.0842 0003657 260.1623  99.9123 14.97279949 53908,6953.441999999999,96.174,577.85,572.764,0.0
49155.0,STARLINK-3060,PAYLOAD,2022-08-21 16:36:07,14.97281242,0.0003683,69.9982,281.7479,260.5809,99.4933,0.00030727,3.478e-05,0.0,0 STARLINK-3060,1 49155U 21082AB  22233.69174872  .00003478  00000-0  30727-3 0  9997,2 49155  69.9982 281.7479 0003683 260.5809  99.4933 14.97281242 53923,6953.438,96.174,577.864,572.742,0.0
49155.0,STARLINK-3060,PAYLOAD,2022-08-22 10:14:20,14.97285893,0.0003676,69.9982,279.898,260.3808,99.6935,0.00027768,3.135e-05,0.0,0 STARLINK-3060,1 49155U 21082AB  22234.42662109  .00003135  00000-0  27768-3 0  9995,2 49155  69.9982 279.8980 0003676 260.3808  99.6935 14.97285893 54030,6953.424,96.174,577.845,572.7330000000002,0.0
49155.0,STARLINK-3060,PAYLOAD,2022-08-22 19:51:32,14.97285847,0.0003672,69.9978,278.8888,260.1881,99.8863,0.00022282,2.497e-05,0.0,0 STARLINK-3060,1 49155U 21082AB  22234.82746091  .00002497  00000-0  22282-3 0  9998,2 49155  69.9978 278.8888 0003672 260.1881  99.8863 14.97285847 54093,6953.424,96.174,577.842,572.735,0.0
49155.0,STARLINK-3060,PAYLOAD,2022-08-23 10:17:21,14.97287211,0.0003708,69.9977,277.375,259.8657,100.2083,0.00016207,1.791e-05,0.0,0 STARLINK-3060,1 49155U 21082AB  22235.42871841  .00001791  00000-0  16207-3 0  9993,2 49155  69.9977 277.3750 0003708 259.8657 100.2083 14.97287211 54188,6953.42,96.174,577.863,572.706,0.0
49155.0,STARLINK-3060,PAYLOAD,2022-08-23 15:05:57,14.97287541,0.0003705,69.9976,276.8705,259.8075,100.2666,0.00014485,1.591e-05,0.0,0 STARLINK-3060,1 49155U 21082AB  22235.62913776  .00001591  00000-0  14485-3 0  9993,2 49155  69.9976 276.8705 0003705 259.8075 100.2666 14.97287541 54219,6953.418000000002,96.174,577.86,572.707,0.0
49155.0,STARLINK-3060,PAYLOAD,2022-08-23 19:54:33,14.97290133,0.0003711,69.9976,276.3658,259.6435,100.4305,0.00018346,2.04e-05,0.0,0 STARLINK-3060,1 49155U 21082AB  22235.82955642  .00002040  00000-0  18346-3 0  9993,2 49155  69.9976 276.3658 0003711 259.6435 100.4305 14.97290133 54242,6953.41,96.174,577.856,572.695,0.0
49155.0,STARLINK-3060,PAYLOAD,2022-08-24 11:56:34,14.97291641,0.000371,69.9962,274.684,258.6157,101.4585,0.00018656,2.076e-05,0.0,0 STARLINK-3060,1 49155U 21082AB  22236.49762054  .00002076  00000-0  18656-3 0  9993,2 49155  69.9962 274.6840 0003710 258.6157 101.4585 14.97291641 54347,6953.406,96.174,577.85,572.691,0.0
49155.0,STARLINK-3060,PAYLOAD,2022-08-25 02:22:22,14.97294022,0.0003705,69.9961,273.1702,258.41200000000003,101.6623,0.00018111,2.012e-05,0.0,0 STARLINK-3060,1 49155U 21082AB  22237.09887567  .00002012  00000-0  18111-3 0  9993,2 49155  69.9961 273.1702 0003705 258.4120 101.6623 14.97294022 54430,6953.398,96.173,577.84,572.687,0.0
49155.0,STARLINK-3060,PAYLOAD,2022-08-25 10:23:23,14.97295262,0.0003715,69.9961,272.3292,258.6215,101.4526,0.00017058,1.89e-05,0.0,0 STARLINK-3060,1 49155U 21082AB  22237.43290614  .00001890  00000-0  17058-3 0  9994,2 49155  69.9961 272.3292 0003715 258.6215 101.4526 14.97295262 54485,6953.395,96.173,577.8430000000002,572.6759999999998,0.0
49155.0,STARLINK-3060,PAYLOAD,2022-08-25 20:00:35,14.97295453,0.0003705,69.9961,271.3201,258.7346,101.3397,0.000162,1.7899999999999998e-05,0.0,0 STARLINK-3060,1 49155U 21082AB  22237.83374329  .00001790  00000-0  16200-3 0  9991,2 49155  69.9961 271.3201 0003705 258.7346 101.3397 14.97295453 54543,6953.394,96.173,577.835,572.683,0.0
49155.0,STARLINK-3060,PAYLOAD,2022-08-26 02:25:23,14.97297864,0.000371,69.99600000000001,270.6473,258.6594,101.4147,0.00016593,1.836e-05,0.0,0 STARLINK-3060,1 49155U 21082AB  22238.10096612  .00001836  00000-0  16593-3 0  9994,2 49155  69.9960 270.6473 0003710 258.6594 101.4147 14.97297864 54581,6953.387,96.173,577.831,572.672,0.0
49155.0,STARLINK-3060,PAYLOAD,2022-08-26 10:26:23,14.97298147,0.0003731,69.99600000000001,269.8063,258.8536,101.2203,0.00015445,1.703e-05,0.0,0 STARLINK-3060,1 49155U 21082AB  22238.43499661  .00001703  00000-0  15445-3 0  9999,2 49155  69.9960 269.8063 0003731 258.8536 101.2203 14.97298147 54639,6953.386,96.173,577.845,572.656,0.0
49155.0,STARLINK-3060,PAYLOAD,2022-08-26 13:38:47,14.97298412,0.0003728999999999,69.9959,269.4698,258.8616,101.2123,0.00015067,1.659e-05,0.0,0 STARLINK-3060,1 49155U 21082AB  22238.56860863  .00001659  00000-0  15067-3 0  9999,2 49155  69.9959 269.4698 0003729 258.8616 101.2123 14.97298412 54651,6953.385,96.173,577.8430000000002,572.6569999999998,0.0
49155.0,STARLINK-3060,PAYLOAD,2022-08-27 10:29:24,14.97302215,0.0003728999999999,69.9958,267.2833,258.6082,101.4657,0.00015887,1.754e-05,0.0,0 STARLINK-3060,1 49155U 21082AB  22239.43708490  .00001754  00000-0  15887-3 0  9999,2 49155  69.9958 267.2833 0003729 258.6082 101.4657 14.97302215 54787,6953.373000000001,96.173,577.831,572.645,0.0
49155.0,STARLINK-3060,PAYLOAD,2022-08-27 13:41:48,14.97302891,0.0003731,69.9958,266.9469,258.6856,101.3883,0.00016074,1.776e-05,0.0,0 STARLINK-3060,1 49155U 21082AB  22239.57069629  .00001776  00000-0  16074-3 0  9991,2 49155  69.9958 266.9469 0003731 258.6856 101.3883 14.97302891 54803,6953.371,96.173,577.83,572.6419999999998,0.0
